CUBEBUG-2 (LO-74)
1 39440U 13066AA  26189.29650490  .00001757  00000-0  16589-3 0  9999
2 39440  97.8910 138.3670 0056194 318.9114  40.7880 14.93939383680144
FUNCUBE-1 (AO-73)
1 39444U 13066AE  26189.33367698  .00004760  00000-0  29429-3 0  9997
2 39444  97.8284 161.2250 0037707 130.0497 230.4049 15.09759525682858
UWE-3
1 39446U 13066AG  26189.33612893  .00001733  00000-0  15204-3 0  9992
2 39446  97.8696 145.5560 0047522 248.4998 111.1154 14.97171964680741
UNISAT-6
1 40012U 14033C   26189.37861130  .00001615  00000-0  17740-3 0  9998
2 40012  97.7901 341.7213 0044740   0.4555 359.6695 14.88348610649310
DUCHIFAT-1
1 40021U 14033M   26189.41559852  .00107238  00000-0  89957-3 0  9995
2 40021  98.0445 251.6379 0001577 267.1459  92.9620 15.69597973659072
LILACSAT-2
1 40908U 15049K   26189.61633715  .00013441  00000-0  22323-3 0  9996
2 40908  97.4630 227.2791 0007878 161.3280 198.8263 15.52188833599074
CAS-2T & KS-1Q
1 41847U 16066G   26189.15650908  .00001002  00000-0  14790-3 0  9990
2 41847  98.3815 264.6528 0342581  66.0666 297.6008 14.44759286507820
FOX-1B (AO-91)
1 43017U 17073E   26189.43942832  .00004488  00000-0  19744-3 0  9996
2 43017  97.4685  56.2209 0148105 255.0605 103.4188 15.13003288468602
FUNCUBE-3 (EO-79)/QB50P1
1 40025U 14033R   26189.50144571  .00005677  00000-0  27786-3 0  9993
2 40025  98.0973 202.1461 0009935 144.4347 215.7549 15.18598212656268
FOX-1A (AO-85)
1 40967U 15058D   26189.34630242  .00001594  00000-0  15149-3 0  9997
2 40967  64.7733 213.2226 0131834  48.4039 312.8281 14.91062267116724
DIWATA-2B (PO-101)
1 43678U 18084H   26189.57599146  .00001425  00000-0  11800-3 0  9996
2 43678  98.1218  26.7193 0013055 104.5019 255.7652 15.00545871419429
ESHAIL-2
1 43700U 18090A   26189.50465009  .00000159  00000-0  00000-0 0  9992
2 43700   0.0117 316.5020 0002356 198.0561 339.3889  1.00272839 27899
ITASAT-1
1 43786U 18099AE  26189.09906209  .00003925  00000-0  18881-3 0  9994
2 43786  97.4017 240.1952 0010758 279.1684  80.8334 15.19323462416080
FOX-1CLIFF (AO-95)
1 43770U 18099N   26189.44139194  .00007380  00000-0  27962-3 0  9996
2 43770  97.4374 249.6139 0006945 268.6631  91.3813 15.27175918416469
JY1SAT (JO-97)
1 43803U 18099AX  26189.42652062  .00011011  00000-0  33303-3 0  9997
2 43803  97.4118 252.3426 0006205 179.3221 180.8031 15.34363241416882
UWE-4
1 43880U 18111E   26188.78758242  .00024202  00000-0  47256-3 0  9990
2 43880  97.5840 118.1465 0004963 225.8945 134.1896 15.47469356413966
CAS-6 (TO-108)
1 44881U 19093C   26189.51721638  .00000339  00000-0  44281-4 0  9994
2 44881  97.7521 261.2292 0014181  23.0504 337.1345 14.86554981354583
DOSAAF-85 (RS-44)
1 44909U 19096E   26189.34855949  .00000019  00000-0  22198-4 0  9990
2 44909  82.5237 325.6429 0218594  94.9221 267.6873 12.79748992305052
SALSAT (TUBSAT 22)
1 46495U 20068K   26189.46701474  .00004931  00000-0  17203-3 0  9996
2 46495  97.8859 193.8315 0008516 218.2627 141.8009 15.30108644318618
CAMSAT XW-3 (CAS-9)
1 50466U 21131B   26189.57441034  .00000471  00000-0  15899-3 0  9990
2 50466  98.4981 281.8494 0004966  47.0724 313.0881 14.41378778238194
ROBUSTA 1F (MTCUBE-2)
1 53109U 22080E   26189.19521522 -.00000003  00000-0  00000-0 0  9997
2 53109  70.1427 290.9400 0009007 285.1341  74.8322  6.42583247 93419
UMKA-1 (RS40S)
1 57172U 23091G   26189.54171394  .00003916  00000-0  17900-3 0  9996
2 57172  97.5040 248.1585 0013632  51.1673 309.0777 15.21072482167256
CUBESX-HSE-3 (RS42S)
1 57178U 23091N   26189.53944942  .00009415  00000-0  30895-3 0  9996
2 57178  97.5081 255.4028 0010384  25.5946 334.5808 15.31772307167699
MONITOR-3 (RS58S)
1 57180U 23091Q   26189.54629831  .00007108  00000-0  26023-3 0  9992
2 57180  97.5073 253.1536 0011697  32.6619 327.5341 15.28285215167558
MONITOR-4 (RS57S)
1 57182U 23091S   26189.45869785  .00007631  00000-0  27843-3 0  9990
2 57182  97.5066 253.0377 0011701  33.3323 326.8651 15.28370377167549
MONITOR-2 (RS39S)
1 57184U 23091U   26189.52422315  .00003469  00000-0  16827-3 0  9999
2 57184  97.5062 247.6702 0012034  45.6327 314.5891 15.19115156167191
SVYATOBOR-1 (RS60S)
1 57187U 23091X   26189.55604603  .00005965  00000-0  22776-3 0  9990
2 57187  97.5078 253.4948 0009433  27.4744 332.6991 15.26989469167576
VIZARD-METEO (RS38S)
1 57189U 23091Z   26189.57566488  .00011822  00000-0  33149-3 0  9997
2 57189  97.5079 259.4982 0006295   6.1804 353.9517 15.36729441167974
UTMN-2 (RS27S)
1 57203U 23091AP  26189.54549595  .00009081  00000-0  29080-3 0  9994
2 57203  97.5077 257.0687 0007453  14.6933 345.4524 15.32592548167818
POLYTECH UNIVERSE-3 (RS46S)
1 57191U 23091AB  26189.54853554  .00003479  00000-0  16745-3 0  9992
2 57191  97.5037 247.1986 0016577  59.2124 301.0740 15.19325748167196
