OBJECT_NAME,OBJECT_ID,EPOCH,MEAN_MOTION,ECCENTRICITY,INCLINATION,RA_OF_ASC_NODE,ARG_OF_PERICENTER,MEAN_ANOMALY,EPHEMERIS_TYPE,CLASSIFICATION_TYPE,NORAD_CAT_ID,ELEMENT_SET_NO,REV_AT_EPOCH,BSTAR,MEAN_MOTION_DOT,MEAN_MOTION_DDOT
CUBEBUG-2 (LO-74),2013-066AA,2026-07-08T07:06:58.023360,14.93939383,.0056194,97.8910,138.3670,318.9114,40.7880,0,U,39440,999,68014,.16589136E-3,.1757E-4,0
FUNCUBE-1 (AO-73),2013-066AE,2026-07-08T08:00:29.691072,15.09759525,.00377065,97.8284,161.2250,130.0497,230.4049,0,U,39444,999,68285,.2942867E-3,.476E-4,0
UWE-3,2013-066AG,2026-07-08T08:04:01.539552,14.97171964,.00475215,97.8696,145.5560,248.4998,111.1154,0,U,39446,999,68074,.1520418E-3,.1733E-4,0
UNISAT-6,2014-033C,2026-07-08T09:05:12.016320,14.88348610,.00447403,97.7901,341.7213,0.4555,359.6695,0,U,40012,999,64931,.17740109E-3,.1615E-4,0
DUCHIFAT-1,2014-033M,2026-07-08T09:58:27.712128,15.69597973,.00015769,98.0445,251.6379,267.1459,92.9620,0,U,40021,999,65907,.89956653E-3,.107238E-2,0
QB50P1,2014-033R,2026-07-08T12:02:04.909344,15.18598212,.00099345,98.0973,202.1461,144.4347,215.7549,0,U,40025,999,65626,.27786497E-3,.5677E-4,0
LILACSAT-2,2015-049K,2026-07-08T14:47:31.529760,15.52188833,.00078776,97.4630,227.2791,161.3280,198.8263,0,U,40908,999,59907,.22323253E-3,.13441E-3,0
FOX-1A (AO-85),2015-058D,2026-07-08T08:18:40.529088,14.91062267,.01318339,64.7733,213.2226,48.4039,312.8281,0,U,40967,999,11672,.15149463E-3,.1594E-4,0
CAS-2T & KS-1Q,2016-066G,2026-07-08T03:45:22.384512,14.44759286,.03425813,98.3815,264.6528,66.0666,297.6008,0,U,41847,999,50782,.14790392E-3,.1002E-4,0
RADFXSAT (FOX-1B),2017-073E,2026-07-08T10:32:46.606848,15.13003288,.0148105,97.4685,56.2209,255.0605,103.4188,0,U,43017,999,46860,.1974387E-3,.4488E-4,0
DIWATA-2B,2018-084H,2026-07-08T13:49:25.662144,15.00545871,.00130548,98.1218,26.7193,104.5019,255.7652,0,U,43678,999,41942,.11799786E-3,.1425E-4,0
ES'HAIL 2,2018-090A,2026-07-08T12:06:41.767776,1.00272839,.00023556,0.0117,316.5020,198.0561,339.3889,0,U,43700,999,2789,0,.159E-5,0
FOX-1CLIFF (AO-95),2018-099N,2026-07-08T10:35:36.263616,15.27175918,.00069449,97.4374,249.6139,268.6631,91.3813,0,U,43770,999,41646,.27962229E-3,.738E-4,0
ITASAT,2018-099AE,2026-07-08T02:22:38.964576,15.19323462,.00107577,97.4017,240.1952,279.1684,80.8334,0,U,43786,999,41608,.18880664E-3,.3925E-4,0
JY1SAT (JO-97),2018-099AX,2026-07-08T10:14:11.381568,15.34363241,.00062047,97.4118,252.3426,179.3221,180.8031,0,U,43803,999,41688,.33302986E-3,.11011E-3,0
UWE-4,2018-111E,2026-07-07T18:54:07.121088,15.47469356,.00049626,97.5840,118.1465,225.8945,134.1896,0,U,43880,999,41396,.47256403E-3,.24202E-3,0
TIANYAN 01,2019-093C,2026-07-08T12:24:47.495232,14.86554981,.00141807,97.7521,261.2292,23.0504,337.1345,0,U,44881,999,35458,.44280528E-4,.339E-5,0
RS-44 & BREEZE-KM R/B,2019-096E,2026-07-08T08:21:55.539936,12.79748992,.02185942,82.5237,325.6429,94.9221,267.6873,0,U,44909,999,30505,.22197951E-4,.19E-6,0
SALSAT,2020-068K,2026-07-08T11:12:30.073536,15.30108644,.00085164,97.8859,193.8315,218.2627,141.8009,0,U,46495,999,31861,.17202586E-3,.4931E-4,0
XW-3 (CAS-9),2021-131B,2026-07-08T13:47:09.053376,14.41378778,.00049658,98.4981,281.8494,47.0724,313.0881,0,U,50466,999,23819,.15898514E-3,.471E-5,0
GREENCUBE (IO-117),2022-080E,2026-07-08T04:41:06.595008,6.42583247,.00090072,70.1427,290.9400,285.1341,74.8322,0,U,53109,999,9341,0,-.3E-7,0
UMKA 1 (RS40S),2023-091G,2026-07-08T13:00:04.084416,15.21072482,.00136317,97.5040,248.1585,51.1673,309.0777,0,U,57172,999,16725,.17900458E-3,.3916E-4,0
CUBESX-HSE 3 (RS42S),2023-091N,2026-07-08T12:56:48.429888,15.31772307,.0010384,97.5081,255.4028,25.5946,334.5808,0,U,57178,999,16769,.30894948E-3,.9415E-4,0
MONITOR-3 (RS58S),2023-091Q,2026-07-08T13:06:40.173984,15.28285215,.00116968,97.5073,253.1536,32.6619,327.5341,0,U,57180,999,16755,.26022716E-3,.7108E-4,0
MONITOR-4 (RS57S),2023-091S,2026-07-08T11:00:31.494240,15.28370377,.00117013,97.5066,253.0377,33.3323,326.8651,0,U,57182,999,16754,.27843299E-3,.7631E-4,0
MONITOR-2 (RS39S),2023-091U,2026-07-08T12:34:52.880160,15.19115156,.00120343,97.5062,247.6702,45.6327,314.5891,0,U,57184,999,16719,.16826724E-3,.3469E-4,0
SVYATOBOR 1 (RS60S),2023-091X,2026-07-08T13:20:42.376992,15.26989469,.00094333,97.5078,253.4948,27.4744,332.6991,0,U,57187,999,16757,.22776188E-3,.5965E-4,0
VIZARD-METEO (RS38S),2023-091Z,2026-07-08T13:48:57.445632,15.36729441,.00062949,97.5079,259.4982,6.1804,353.9517,0,U,57189,999,16797,.33148972E-3,.11822E-3,0
POLYTECH-UNIVERSE 3 (RS46S),2023-091AB,2026-07-08T13:09:53.470656,15.19325748,.00165773,97.5037,247.1986,59.2124,301.0740,0,U,57191,999,16719,.16745087E-3,.3479E-4,0
UTMN 2 (RS27S),2023-091AP,2026-07-08T13:05:30.850080,15.32592548,.00074527,97.5077,257.0687,14.6933,345.4524,0,U,57203,999,16781,.29080365E-3,.9081E-4,0
